BEIDOU-2 IGSO-1 (C06)   
1 36828U 10036A   24325.50715106 -.00000071  00000+0  00000+0 0  9995
2 36828  54.2561 168.1479 0042681 205.9141 335.1695  1.00285712 52343
BEIDOU-2 G4 (C04)       
1 37210U 10057A   24325.63802295 -.00000110  00000+0  00000+0 0  9998
2 37210   2.2256  70.0890 0009698 179.1764 200.5436  1.00272755 51547
BEIDOU-2 IGSO-2 (C07)   
1 37256U 10068A   24325.60716812 -.00000206  00000+0  00000+0 0  9992
2 37256  48.5936 278.9081 0038213 218.1361 247.0556  1.00252709 51049
BEIDOU-2 IGSO-3 (C08)   
1 37384U 11013A   24324.67296549 -.00000201  00000+0  00000+0 0  9996
2 37384  61.5830  45.6175 0031660 180.5116 182.9444  1.00269643 49901
BEIDOU-2 IGSO-4 (C09)   
1 37763U 11038A   24325.54792069 -.00000015  00000+0  00000+0 0  9992
2 37763  54.5617 170.7958 0129657 228.5753 314.2752  1.00275323 48891
BEIDOU-2 IGSO-5 (C10)   
1 37948U 11073A   24323.60382925 -.00000196  00000+0  00000+0 0  9997
2 37948  48.7324 278.6285 0101309 221.9974 228.9605  1.00257491 47368
BEIDOU-2 G5 (C05)       
1 38091U 12008A   24325.09254292  .00000058  00000+0  00000+0 0  9992
2 38091   2.1442  70.8864 0011285 221.7303 219.1395  1.00266758 46616
BEIDOU-2 M3 (C11)       
1 38250U 12018A   24325.18585057 -.00000076  00000+0  00000+0 0  9997
2 38250  56.2287 324.1413 0025513 266.6332  93.0836  1.86233585 85252
BEIDOU-2 M4 (C12)       
1 38251U 12018B   24325.11629750 -.00000076  00000+0  00000+0 0  9990
2 38251  56.1340 323.4036 0016416 268.8007  91.0190  1.86232014 85257
BEIDOU-2 M6 (C14)       
1 38775U 12050B   24325.36289748 -.00000019  00000+0  00000+0 0  9990
2 38775  56.0436  81.9495 0010607 342.1759  17.7687  1.86230950 82625
BEIDOU-2 G6 (C02)       
1 38953U 12059A   24325.09758198 -.00000174  00000+0  00000+0 0  9999
2 38953   2.9581  79.2188 0006888 289.7056 169.7966  1.00274342 44158
BEIDOU-3S IGSO-1S (C31) 
1 40549U 15019A   24323.82321561 -.00000192  00000+0  00000+0 0  9991
2 40549  50.2864 302.3563 0035536 198.6067 310.5206  1.00270031 35302
BEIDOU-3S M2S (C58)     
1 40748U 15037A   24324.24289085 -.00000077  00000+0  00000+0 0  9995
2 40748  55.3621 321.7559 0013187 259.2472 100.6094  1.86229120 63415
BEIDOU-3S M1S (C57)     
1 40749U 15037B   24323.44217333 -.00000078  00000+0  00000+0 0  9995
2 40749  55.3654 321.7699 0004177 319.3167  40.6575  1.86227513 63393
BEIDOU-3S IGSO-2S (C56) 
1 40938U 15053A   24325.61007090 -.00000153  00000+0  00000+0 0  9995
2 40938  50.1169 265.5738 0052072 189.2658 281.4879  1.00270334 33600
BEIDOU-2 IGSO-6 (C13)   
1 41434U 16021A   24323.70275638 -.00000181  00000+0  00000+0 0  9997
2 41434  59.4091  43.7977 0054821 224.9026 138.8501  1.00284607 31714
BEIDOU-2 G7 (C03)       
1 41586U 16037A   24325.55967597 -.00000352  00000+0  00000+0 0  9999
2 41586   1.7544  67.0585 0006817 339.7465 325.2624  1.00267546  1137
BEIDOU-3 M1 (C19)       
1 43001U 17069A   24324.59180392 -.00000022  00000+0  00000+0 0  9996
2 43001  56.1929  82.0912 0007972 299.0650  60.8340  1.86231181 47902
BEIDOU-3 M2 (C20)       
1 43002U 17069B   24324.52938258 -.00000022  00000+0  00000+0 0  9992
2 43002  56.1918  82.1300 0005568 330.0366  29.9100  1.86230869 47892
BEIDOU-3 M7 (C27)       
1 43107U 18003A   24325.35098864 -.00000078  00000+0  00000+0 0  9990
2 43107  54.8198 322.2406 0002272  63.0970 296.9330  1.86232455 46669
BEIDOU-3 M8 (C28)       
1 43108U 18003B   24325.29272122 -.00000078  00000+0  00000+0 0  9995
2 43108  54.8126 322.2273 0005232 265.2978  94.6490  1.86230899 46677
BEIDOU-3 M4 (C22)       
1 43207U 18018A   24321.97514572 -.00000033  00000+0  00000+0 0  9991
2 43207  56.1493  82.2621 0003854  19.0341 340.9493  1.86230999 45991
BEIDOU-3 M3 (C21)       
1 43208U 18018B   24322.57871716 -.00000032  00000+0  00000+0 0  9994
2 43208  56.1493  82.2463 0005454 314.9035  45.0230  1.86231123 46006
BEIDOU-3 M9 (C29)       
1 43245U 18029A   24325.48335657 -.00000075  00000+0  00000+0 0  9996
2 43245  54.6976 319.9278 0002283 264.7175  95.2606  1.86232644 45219
BEIDOU-3 M10 (C30)      
1 43246U 18029B   24324.33890716 -.00000077  00000+0  00000+0 0  9994
2 43246  54.6964 319.9957 0003710 343.8592  16.1320  1.86232788 45178
BEIDOU-2 IGSO-7 (C16)   
1 43539U 18057A   24325.50831780 -.00000077  00000+0  00000+0 0  9996
2 43539  55.1497 168.0247 0078040 232.2625 315.5332  1.00264189 23385
BEIDOU-3 M5 (C23)       
1 43581U 18062A   24325.10140185  .00000009  00000+0  00000+0 0  9991
2 43581  54.1142 201.8278 0002362 328.5910  31.4823  1.86228787 42948
BEIDOU-3 M6 (C24)       
1 43582U 18062B   24324.96641695  .00000011  00000+0  00000+0 0  9990
2 43582  54.1138 201.8217 0006975  35.8730 324.2618  1.86229857 42943
BEIDOU-3 M12 (C26)      
1 43602U 18067A   24323.28934200  .00000034  00000+0  00000+0 0  9994
2 43602  54.2056 200.5745 0008450  32.7195 327.4282  1.86227675 42396
BEIDOU-3 M11 (C25)      
1 43603U 18067B   24323.95976220  .00000025  00000+0  00000+0 0  9997
2 43603  54.2029 200.5165 0005090  27.3063 332.8132  1.86227192 42437
BEIDOU-3 M13 (C32)      
1 43622U 18072A   24324.99451685 -.00000021  00000+0  00000+0 0  9999
2 43622  56.1234  81.6889 0004854 291.4837  68.4454  1.86231061 41964
BEIDOU-3 M14 (C33)      
1 43623U 18072B   24325.39693995 -.00000019  00000+0  00000+0 0  9994
2 43623  56.1258  81.6689 0002426 335.7406  24.2302  1.86231042 41967
BEIDOU-3 M16 (C35)      
1 43647U 18078A   24325.02173052 -.00000076  00000+0  00000+0 0  9996
2 43647  54.5951 320.0301 0006639   7.2445 352.7687  1.86232257 41469
BEIDOU-3 M15 (C34)      
1 43648U 18078B   24325.15086412 -.00000076  00000+0  00000+0 0  9994
2 43648  54.5906 320.0279 0003360   2.8761 357.1296  1.86232177 41482
BEIDOU-3 G1 (C59)       
1 43683U 18085A   24325.32303683 -.00000276  00000+0  00000+0 0  9994
2 43683   2.5777 104.0160 0001591  60.7185 151.4563  1.00271455 22306
BEIDOU-3 M17 (C36)      
1 43706U 18093A   24325.30353075  .00000007  00000+0  00000+0 0  9998
2 43706  54.1973 201.7708 0007062 297.8136  62.2015  1.86228436 40850
BEIDOU-3 M18 (C37)      
1 43707U 18093B   24325.16759241  .00000009  00000+0  00000+0 0  9990
2 43707  54.1981 201.7672 0006608 336.0829  23.9737  1.86229979 40847
BEIDOU-3 IGSO-1 (C38)   
1 44204U 19023A   24323.67305698 -.00000235  00000+0  00000+0 0  9996
2 44204  57.8718  43.6133 0024953 211.2842 162.6029  1.00255133  1440
BEIDOU-2 G8 (C01)       
1 44231U 19027A   24325.59511149 -.00000246  00000+0  00000+0 0  9995
2 44231   1.8660  74.6793 0005002 197.9934 146.1841  1.00268813 20323
BEIDOU-3 IGSO-2 (C39)   
1 44337U 19035A   24322.83050358 -.00000064  00000+0  00000+0 0  9993
2 44337  55.1861 163.9216 0034767 201.0257 107.1426  1.00249229 19887
BEIDOU-3 M24 (C46)      
1 44542U 19061A   24325.23760197  .00000008  00000+0  00000+0 0  9993
2 44542  54.4250 202.0905 0008997  12.2945 347.8144  1.86229387 35101
BEIDOU-3 M23 (C45)      
1 44543U 19061B   24324.55670227  .00000016  00000+0  00000+0 0  9991
2 44543  54.4236 202.0820 0005675   7.6219 168.5716  1.86229595 35085
BEIDOU-3 IGSO-3 (C40)   
1 44709U 19073A   24325.30562826 -.00000198  00000+0  00000+0 0  9999
2 44709  55.7883 287.0690 0040286 190.8200 169.0360  1.00254601 18704
BEIDOU-3 M22 (C44)      
1 44793U 19078A   24325.08192275 -.00000077  00000+0  00000+0 0  9995
2 44793  54.4424 319.9411 0005317  10.8046 349.2104  1.86232038 33962
BEIDOU-3 M21 (C43)      
1 44794U 19078B   24325.21130980 -.00000076  00000+0  00000+0 0  9995
2 44794  54.4159 319.9092 0003575 354.1630   5.8365  1.86232549 33961
BEIDOU-3 M19 (C41)      
1 44864U 19090A   24325.41986052 -.00000019  00000+0  00000+0 0  9995
2 44864  56.0582  81.8368 0016513 278.9170  53.0001  1.86231493 33549
BEIDOU-3 M20 (C42)      
1 44865U 19090B   24324.30547546 -.00000024  00000+0  00000+0 0  9990
2 44865  56.0590  81.9075 0013832 292.6106 101.8618  1.86231394 33511
BEIDOU-3 G2 (C60)       
1 45344U 20017A   24325.53973006 -.00000140  00000+0  00000+0 0  9993
2 45344   2.5322  35.0570 0004614 216.8711  82.4536  1.00271438 17504
BEIDOU-3 G3 (C61)       
1 45807U 20040A   24325.55967615 -.00000353  00000+0  00000+0 0  9990
2 45807   1.0850  56.1522 0003226 298.3889  17.5211  1.00276483 16310
BEIDOU-3 G4 (C62)       
1 56564U 23066A   24325.22966245 -.00000110  00000+0  00000+0 0  9996
2 56564   1.7364 288.9966 0004664 259.5618 113.9258  1.00271493  5644
BEIDOU-3 M28 (C50)      
1 58654U 23207A   24323.68342999 -.00000029  00000+0  00000+0 0  9996
2 58654  55.2420  81.8037 0001678 235.2707 124.6887  1.86231988  6124
BEIDOU-3 M26 (C48)      
1 58655U 23207B   24325.09359558 -.00000022  00000+0  00000+0 0  9996
2 58655  55.2450  81.7413 0003179 230.0767 129.8764  1.86231489  6130
